ORBCOMM FM103           
1 40091U 14040F   24296.36464133  .00001823  00000+0  43612-3 0  9998
2 40091  47.0056  60.2881 0002911 263.8721  96.1832 14.57268225529406
ORBCOMM FM114           
1 41179U 15081A   24296.46280559  .00001784  00000+0  42758-3 0  9997
2 41179  47.0025 329.0237 0002913 323.9392  36.1296 14.57276562469780
ORBCOMM FM119           
1 41180U 15081B   24296.23329979  .00001835  00000+0  43892-3 0  9991
2 41180  46.9996 239.3307 0001191  18.0734 342.0193 14.57246768471005
ORBCOMM FM105           
1 41181U 15081C   24296.16217576  .00000905  00000+0  30336-3 0  9999
2 41181  47.0011 221.8070 0002188 322.7548  37.3180 14.44750702466327
ORBCOMM FM110           
1 41182U 15081D   24296.50774312  .00002010  00000+0  47700-3 0  9996
2 41182  47.0016 328.1963 0000477 178.4504 181.6383 14.57267539469665
ORBCOMM FM118           
1 41183U 15081E   24296.48572870  .00002095  00000+0  49552-3 0  9999
2 41183  47.0041 328.6471 0000908 170.4935 189.5967 14.57279479469764
ORBCOMM FM112           
1 41184U 15081F   24296.27950259  .00002211  00000+0  52132-3 0  9996
2 41184  46.9978 238.3103 0001805   4.9415 355.1488 14.57239849470951
ORBCOMM FM113           
1 41185U 15081G   24296.18812776  .00001999  00000+0  47516-3 0  9990
2 41185  46.9997 239.0337 0001415  24.3923 335.7029 14.57223009470920
